NAVSTAR 77 (USA 289)    
1 43873U 18109A   24023.65048157 -.00000047  00000+0  00000+0 0  9991
2 43873  55.2419 126.7799 0028472 192.6590 273.5545  2.00573256 37516
